[{"OBJECT_NAME":"STARLINK-32667","OBJECT_ID":"2024-229K","EPOCH":"2026-03-09T22:29:45.198816","MEAN_MOTION":15.275991,"ECCENTRICITY":0.00027065,"INCLINATION":43.0058,"RA_OF_ASC_NODE":268.938,"ARG_OF_PERICENTER":255.6074,"MEAN_ANOMALY":104.4478,"EPHEMERIS_TYPE":0,"CLASSIFICATION_TYPE":"U","NORAD_CAT_ID":62201,"ELEMENT_SET_NO":999,"REV_AT_EPOCH":7060,"BSTAR":0.0013549994,"MEAN_MOTION_DOT":0.00037237,"MEAN_MOTION_DDOT":0},{"OBJECT_NAME":"FLOCK 4G-24","OBJECT_ID":"2025-009AE","EPOCH":"2026-03-09T17:24:07.838208","MEAN_MOTION":15.27784978,"ECCENTRICITY":0.0001802,"INCLINATION":97.4061,"RA_OF_ASC_NODE":151.514,"ARG_OF_PERICENTER":280.2808,"MEAN_ANOMALY":79.8228,"EPHEMERIS_TYPE":0,"CLASSIFICATION_TYPE":"U","NORAD_CAT_ID":62637,"ELEMENT_SET_NO":999,"REV_AT_EPOCH":6373,"BSTAR":0.00038996067,"MEAN_MOTION_DOT":0.00010513,"MEAN_MOTION_DDOT":0}]
